{"type": "FeatureCollection", "features": [ {"type": "Feature", "properties": {"norad_id": 66839, "name": "STARLINK-35717", "group": "last-30-days", "lat": 27.0385381324856, "lon": 172.91690032145777, "alt_km": 408.49330253691915, "timestamp": "2025-12-25T22:42:15.709510+00:00", "meta": {"OBJECT_NAME": "STARLINK-35717", "OBJECT_ID": "2025-280U", "EPOCH": "2025-12-25T16:23:42.043200", "MEAN_MOTION": 15.52543584, "ECCENTRICITY": 0.0003167, "INCLINATION": 70.0008, "RA_OF_ASC_NODE": 162.9239, "ARG_OF_PERICENTER": 273.9605, "MEAN_ANOMALY": 86.1219, "EPHEMERIS_TYPE": 0, "CLASSIFICATION_TYPE": "U", "NORAD_CAT_ID": 66839, "ELEMENT_SET_NO": 999, "REV_AT_EPOCH": 494, "BSTAR": 0.0016068, "MEAN_MOTION_DOT": 0.00100027, "MEAN_MOTION_DDOT": 0}, "tle": {"line1": "1 66839U 25280U   25359.68312550  .00100027  00000+0  16068-2 0  9995", "line2": "2 66839  70.0008 162.9239 0003167 273.9605  86.1219 15.52543584  4946"}}, "geometry": {"type": "Point", "coordinates": [172.91690032145777, 27.0385381324856]}}, {"type": "Feature", "properties": {"norad_id": 66840, "name": "STARLINK-35837", "group": "last-30-days", "lat": 30.576422291679823, "lon": 174.62726699698462, "alt_km": 408.3011093342129, "timestamp": "2025-12-25T22:42:15.709522+00:00", "meta": {"OBJECT_NAME": "STARLINK-35837", "OBJECT_ID": "2025-280V", "EPOCH": "2025-12-25T14:49:55.811712", "MEAN_MOTION": 15.52541556, "ECCENTRICITY": 0.0003396, "INCLINATION": 70.0008, "RA_OF_ASC_NODE": 163.0984, "ARG_OF_PERICENTER": 270.5405, "MEAN_ANOMALY": 89.5392, "EPHEMERIS_TYPE": 0, "CLASSIFICATION_TYPE": "U", "NORAD_CAT_ID": 66840, "ELEMENT_SET_NO": 999, "REV_AT_EPOCH": 493, "BSTAR": 0.00084963, "MEAN_MOTION_DOT": 0.00052492, "MEAN_MOTION_DDOT": 0}, "tle": {"line1": "1 66840U 25280V   25359.61800708  .00052492  00000+0  84963-3 0  9999", "line2": "2 66840  70.0008 163.0984 0003396 270.5405  89.5392 15.52541556  4937"}}, "geometry": {"type": "Point", "coordinates": [174.62726699698462, 30.576422291679823]}}, {"type": "Feature", "properties": {"norad_id": 66841, "name": "STARLINK-35715", "group": "last-30-days", "lat": 32.29465283165276, "lon": 175.50658045841357, "alt_km": 407.9198926643294, "timestamp": "2025-12-25T22:42:15.709531+00:00", "meta": {"OBJECT_NAME": "STARLINK-35715", "OBJECT_ID": "2025-280W", "EPOCH": "2025-12-25T16:22:13.308672", "MEAN_MOTION": 15.52527469, "ECCENTRICITY": 0.0003258, "INCLINATION": 70.0008, "RA_OF_ASC_NODE": 162.9203, "ARG_OF_PERICENTER": 275.3909, "MEAN_ANOMALY": 84.6906, "EPHEMERIS_TYPE": 0, "CLASSIFICATION_TYPE": "U", "NORAD_CAT_ID": 66841, "ELEMENT_SET_NO": 999, "REV_AT_EPOCH": 494, "BSTAR": 0.00097591, "MEAN_MOTION_DOT": 0.00060347, "MEAN_MOTION_DDOT": 0}, "tle": {"line1": "1 66841U 25280W   25359.68209848  .00060347  00000+0  97591-3 0  9994", "line2": "2 66841  70.0008 162.9203 0003258 275.3909  84.6906 15.52527469  4944"}}, "geometry": {"type": "Point", "coordinates": [175.50658045841357, 32.29465283165276]}}, {"type": "Feature", "properties": {"norad_id": 66842, "name": "STARLINK-35769", "group": "last-30-days", "lat": 34.078096596465976, "lon": 176.4595999867434, "alt_km": 407.5785739343801, "timestamp": "2025-12-25T22:42:15.709541+00:00", "meta": {"OBJECT_NAME": "STARLINK-35769", "OBJECT_ID": "2025-280X", "EPOCH": "2025-12-25T16:21:43.530048", "MEAN_MOTION": 15.52546492, "ECCENTRICITY": 0.000316, "INCLINATION": 70.0007, "RA_OF_ASC_NODE": 162.9191, "ARG_OF_PERICENTER": 274.6719, "MEAN_ANOMALY": 85.4107, "EPHEMERIS_TYPE": 0, "CLASSIFICATION_TYPE": "U", "NORAD_CAT_ID": 66842, "ELEMENT_SET_NO": 999, "REV_AT_EPOCH": 494, "BSTAR": 0.0015379, "MEAN_MOTION_DOT": 0.00095683, "MEAN_MOTION_DDOT": 0}, "tle": {"line1": "1 66842U 25280X   25359.68175382  .00095683  00000+0  15379-2 0  9994", "line2": "2 66842  70.0007 162.9191 0003160 274.6719  85.4107 15.52546492  4942"}}, "geometry": {"type": "Point", "coordinates": [176.4595999867434, 34.078096596465976]}}, {"type": "Feature", "properties": {"norad_id": 66843, "name": "STARLINK-35997", "group": "last-30-days", "lat": 37.557223189021904, "lon": 178.45315126290814, "alt_km": 407.45085404437214, "timestamp": "2025-12-25T22:42:15.709551+00:00", "meta": {"OBJECT_NAME": "STARLINK-35997", "OBJECT_ID": "2025-280Y", "EPOCH": "2025-12-25T16:20:44.053152", "MEAN_MOTION": 15.52537479, "ECCENTRICITY": 0.0003663, "INCLINATION": 70.001, "RA_OF_ASC_NODE": 162.9155, "ARG_OF_PERICENTER": 272.6023, "MEAN_ANOMALY": 87.4744, "EPHEMERIS_TYPE": 0, "CLASSIFICATION_TYPE": "U", "NORAD_CAT_ID": 66843, "ELEMENT_SET_NO": 999, "REV_AT_EPOCH": 494, "BSTAR": 0.0014389, "MEAN_MOTION_DOT": 0.0008942, "MEAN_MOTION_DDOT": 0}, "tle": {"line1": "1 66843U 25280Y   25359.68106543  .00089420  00000+0  14389-2 0  9990", "line2": "2 66843  70.0010 162.9155 0003663 272.6023  87.4744 15.52537479  4945"}}, "geometry": {"type": "Point", "coordinates": [178.45315126290814, 37.557223189021904]}}, {"type": "Feature", "properties": {"norad_id": 66844, "name": "STARLINK-36073", "group": "last-30-days", "lat": 35.88306861151374, "lon": 177.46994024854047, "alt_km": 407.4948619764082, "timestamp": "2025-12-25T22:42:15.709566+00:00", "meta": {"OBJECT_NAME": "STARLINK-36073", "OBJECT_ID": "2025-280Z", "EPOCH": "2025-12-25T14:48:26.758368", "MEAN_MOTION": 15.52569091, "ECCENTRICITY": 0.0003375, "INCLINATION": 70.0007, "RA_OF_ASC_NODE": 163.0939, "ARG_OF_PERICENTER": 269.1375, "MEAN_ANOMALY": 90.9425, "EPHEMERIS_TYPE": 0, "CLASSIFICATION_TYPE": "U", "NORAD_CAT_ID": 66844, "ELEMENT_SET_NO": 999, "REV_AT_EPOCH": 490, "BSTAR": 0.0016914, "MEAN_MOTION_DOT": 0.00105471, "MEAN_MOTION_DDOT": 0}, "tle": {"line1": "1 66844U 25280Z   25359.61697637  .00105471  00000+0  16914-2 0  9994", "line2": "2 66844  70.0007 163.0939 0003375 269.1375  90.9425 15.52569091  4901"}}, "geometry": {"type": "Point", "coordinates": [177.46994024854047, 35.88306861151374]}}, {"type": "Feature", "properties": {"norad_id": 66845, "name": "STARLINK-36068", "group": "last-30-days", "lat": 42.688176166951216, "lon": -178.18696568707347, "alt_km": 406.66757480811884, "timestamp": "2025-12-25T22:42:15.709575+00:00", "meta": {"OBJECT_NAME": "STARLINK-36068", "OBJECT_ID": "2025-280AA", "EPOCH": "2025-12-25T17:52:02.022240", "MEAN_MOTION": 15.52543144, "ECCENTRICITY": 0.0003369, "INCLINATION": 70.0011, "RA_OF_ASC_NODE": 162.7349, "ARG_OF_PERICENTER": 275.3262, "MEAN_ANOMALY": 84.7541, "EPHEMERIS_TYPE": 0, "CLASSIFICATION_TYPE": "U", "NORAD_CAT_ID": 66845, "ELEMENT_SET_NO": 999, "REV_AT_EPOCH": 495, "BSTAR": 0.00096027, "MEAN_MOTION_DOT": 0.00059404, "MEAN_MOTION_DDOT": 0}, "tle": {"line1": "1 66845U 25280AA  25359.74446785  .00059404  00000+0  96027-3 0  9993", "line2": "2 66845  70.0011 162.7349 0003369 275.3262  84.7541 15.52543144  4951"}}, "geometry": {"type": "Point", "coordinates": [-178.18696568707347, 42.688176166951216]}}, {"type": "Feature", "properties": {"norad_id": 66846, "name": "STARLINK-36055", "group": "last-30-days", "lat": 39.22605008599733, "lon": 179.48448797210835, "alt_km": 407.2469663890015, "timestamp": "2025-12-25T22:42:15.709585+00:00", "meta": {"OBJECT_NAME": "STARLINK-36055", "OBJECT_ID": "2025-280AB", "EPOCH": "2025-12-25T16:20:14.961408", "MEAN_MOTION": 15.52517649, "ECCENTRICITY": 0.0003297, "INCLINATION": 70.001, "RA_OF_ASC_NODE": 162.9141, "ARG_OF_PERICENTER": 271.1373, "MEAN_ANOMALY": 88.9436, "EPHEMERIS_TYPE": 0, "CLASSIFICATION_TYPE": "U", "NORAD_CAT_ID": 66846, "ELEMENT_SET_NO": 999, "REV_AT_EPOCH": 494, "BSTAR": 0.00082938, "MEAN_MOTION_DOT": 0.00051184, "MEAN_MOTION_DDOT": 0}, "tle": {"line1": "1 66846U 25280AB  25359.68072872  .00051184  00000+0  82938-3 0  9992", "line2": "2 66846  70.0010 162.9141 0003297 271.1373  88.9436 15.52517649  4949"}}, "geometry": {"type": "Point", "coordinates": [179.48448797210835, 39.22605008599733]}}, {"type": "Feature", "properties": {"norad_id": 66847, "name": "STARLINK-36061", "group": "last-30-days", "lat": 40.990851315255135, "lon": -179.36255019785938, "alt_km": 406.96934265330583, "timestamp": "2025-12-25T22:42:15.709595+00:00", "meta": {"OBJECT_NAME": "STARLINK-36061", "OBJECT_ID": "2025-280AC", "EPOCH": "2025-12-25T16:19:44.862240", "MEAN_MOTION": 15.52539422, "ECCENTRICITY": 0.0003338, "INCLINATION": 70.001, "RA_OF_ASC_NODE": 162.9132, "ARG_OF_PERICENTER": 270.7616, "MEAN_ANOMALY": 89.3188, "EPHEMERIS_TYPE": 0, "CLASSIFICATION_TYPE": "U", "NORAD_CAT_ID": 66847, "ELEMENT_SET_NO": 999, "REV_AT_EPOCH": 494, "BSTAR": 0.0011161, "MEAN_MOTION_DOT": 0.00069144, "MEAN_MOTION_DDOT": 0}, "tle": {"line1": "1 66847U 25280AC  25359.68038035  .00069144  00000+0  11161-2 0  9990", "line2": "2 66847  70.0010 162.9132 0003338 270.7616  89.3188 15.52539422  4943"}}, "geometry": {"type": "Point", "coordinates": [-179.36255019785938, 40.990851315255135]}}, {"type": "Feature", "properties": {"norad_id": 66848, "name": "STARLINK-36091", "group": "last-30-days", "lat": -3.3400059645959623, "lon": -133.97866477671172, "alt_km": 413.62449250805184, "timestamp": "2025-12-25T22:42:15.709607+00:00", "meta": {"OBJECT_NAME": "STARLINK-36091", "OBJECT_ID": "2025-281A", "EPOCH": "2025-12-25T18:00:02.000160", "MEAN_MOTION": 15.5184627, "ECCENTRICITY": 0.0001151, "INCLINATION": 43.0003, "RA_OF_ASC_NODE": 43.5789, "ARG_OF_PERICENTER": 273.3417, "MEAN_ANOMALY": 255.4942, "EPHEMERIS_TYPE": 0, "CLASSIFICATION_TYPE": "U", "NORAD_CAT_ID": 66848, "ELEMENT_SET_NO": 999, "REV_AT_EPOCH": 347, "BSTAR": -0.030466, "MEAN_MOTION_DOT": -0.01674271, "MEAN_MOTION_DDOT": 0}, "tle": {"line1": "1 66848U 25281A   25359.75002315 -.01674271  00000+0 -30466-1 0  9996", "line2": "2 66848  43.0003  43.5789 0001151 273.3417 255.4942 15.51846270  3479"}}, "geometry": {"type": "Point", "coordinates": [-133.97866477671172, -3.3400059645959623]}}]}